{
  "type": "FeatureCollection",
  "features": [
    {
      "type": "Feature",
      "properties": {
        "norad_id": 34972,
        "name": "COSMOS 2251 DEB",
        "group": "cosmos-2251-debris",
        "lat": -55.45843192496756,
        "lon": 15.995887220018648,
        "alt_km": 663.2820202840576,
        "timestamp": "2025-12-17T10:52:54.748010+00:00",
        "meta_object_name": "COSMOS 2251 DEB",
        "meta_object_id": "1993-036AFB",
        "meta_epoch": "2025-12-15T10:19:31.579968",
        "meta_mean_motion": 14.72931379,
        "meta_eccentricity": 0.00334754,
        "meta_inclination": 73.9887,
        "meta_ra_of_asc_node": 44.6018,
        "meta_arg_of_pericenter": 203.2448,
        "meta_mean_anomaly": 173.7883,
        "meta_ephemeris_type": 0,
        "meta_classification_type": "U",
        "meta_norad_cat_id": 34972,
        "meta_element_set_no": 999,
        "meta_rev_at_epoch": 87690,
        "meta_bstar": 0.00082603298,
        "meta_mean_motion_dot": 5.315e-05,
        "meta_mean_motion_ddot": 0,
        "tle_line1": "1 34972U 93036AFB 25349.43022662  .00005315  00000+0  82603-3 0  9999",
        "tle_line2": "2 34972  73.9887  44.6018 0033475 203.2448 173.7883 14.72931379876900"
      },
      "geometry": {
        "type": "Point",
        "coordinates": [
          15.995887220018648,
          -55.45843192496756
        ]
      }
    },
    {
      "type": "Feature",
      "properties": {
        "norad_id": 34976,
        "name": "COSMOS 2251 DEB",
        "group": "cosmos-2251-debris",
        "lat": 72.39719294004179,
        "lon": 52.73539823729442,
        "alt_km": 646.4687562864274,
        "timestamp": "2025-12-17T10:52:54.748021+00:00",
        "meta_object_name": "COSMOS 2251 DEB",
        "meta_object_id": "1993-036AFF",
        "meta_epoch": "2025-12-16T21:41:30.434208",
        "meta_mean_motion": 14.76659801,
        "meta_eccentricity": 0.00478076,
        "meta_inclination": 74.0571,
        "meta_ra_of_asc_node": 298.0987,
        "meta_arg_of_pericenter": 343.9713,
        "meta_mean_anomaly": 72.6765,
        "meta_ephemeris_type": 0,
        "meta_classification_type": "U",
        "meta_norad_cat_id": 34976,
        "meta_element_set_no": 999,
        "meta_rev_at_epoch": 88335,
        "meta_bstar": 0.0012885114,
        "meta_mean_motion_dot": 9.159e-05,
        "meta_mean_motion_ddot": 0,
        "tle_line1": "1 34976U 93036AFF 25350.90382447  .00009159  00000+0  12885-2 0  9991",
        "tle_line2": "2 34976  74.0571 298.0987 0047807 343.9713  72.6765 14.76659801883351"
      },
      "geometry": {
        "type": "Point",
        "coordinates": [
          52.73539823729442,
          72.39719294004179
        ]
      }
    },
    {
      "type": "Feature",
      "properties": {
        "norad_id": 34979,
        "name": "COSMOS 2251 DEB",
        "group": "cosmos-2251-debris",
        "lat": -11.856655273305119,
        "lon": 81.43352438735576,
        "alt_km": 662.4987653448015,
        "timestamp": "2025-12-17T10:52:54.748031+00:00",
        "meta_object_name": "COSMOS 2251 DEB",
        "meta_object_id": "1993-036AFJ",
        "meta_epoch": "2025-12-16T19:24:25.149024",
        "meta_mean_motion": 14.79429559,
        "meta_eccentricity": 0.00491421,
        "meta_inclination": 74.0407,
        "meta_ra_of_asc_node": 259.2572,
        "meta_arg_of_pericenter": 336.3397,
        "meta_mean_anomaly": 23.5518,
        "meta_ephemeris_type": 0,
        "meta_classification_type": "U",
        "meta_norad_cat_id": 34979,
        "meta_element_set_no": 999,
        "meta_rev_at_epoch": 88280,
        "meta_bstar": 0.00088569047,
        "meta_mean_motion_dot": 6.718e-05,
        "meta_mean_motion_ddot": 0,
        "tle_line1": "1 34979U 93036AFJ 25350.80862441  .00006718  00000+0  88569-3 0  9991",
        "tle_line2": "2 34979  74.0407 259.2572 0049142 336.3397  23.5518 14.79429559882807"
      },
      "geometry": {
        "type": "Point",
        "coordinates": [
          81.43352438735576,
          -11.856655273305119
        ]
      }
    },
    {
      "type": "Feature",
      "properties": {
        "norad_id": 34990,
        "name": "COSMOS 2251 DEB",
        "group": "cosmos-2251-debris",
        "lat": 27.87379837464493,
        "lon": -108.69925651420523,
        "alt_km": 747.907104453473,
        "timestamp": "2025-12-17T10:52:54.748041+00:00",
        "meta_object_name": "COSMOS 2251 DEB",
        "meta_object_id": "1993-036AFN",
        "meta_epoch": "2025-12-15T10:28:28.781472",
        "meta_mean_motion": 14.42382837,
        "meta_eccentricity": 0.00165597,
        "meta_inclination": 74.0457,
        "meta_ra_of_asc_node": 246.3361,
        "meta_arg_of_pericenter": 308.9911,
        "meta_mean_anomaly": 50.977,
        "meta_ephemeris_type": 0,
        "meta_classification_type": "U",
        "meta_norad_cat_id": 34990,
        "meta_element_set_no": 999,
        "meta_rev_at_epoch": 87385,
        "meta_bstar": 0.00031884459,
        "meta_mean_motion_dot": 1.029e-05,
        "meta_mean_motion_ddot": 0,
        "tle_line1": "1 34990U 93036AFN 25349.43644423  .00001029  00000+0  31884-3 0  9997",
        "tle_line2": "2 34990  74.0457 246.3361 0016559 308.9911  50.9770 14.42382837873857"
      },
      "geometry": {
        "type": "Point",
        "coordinates": [
          -108.69925651420523,
          27.87379837464493
        ]
      }
    },
    {
      "type": "Feature",
      "properties": {
        "norad_id": 34997,
        "name": "COSMOS 2251 DEB",
        "group": "cosmos-2251-debris",
        "lat": -63.5362971986949,
        "lon": 157.8423183021028,
        "alt_km": 685.1125723663808,
        "timestamp": "2025-12-17T10:52:54.748051+00:00",
        "meta_object_name": "COSMOS 2251 DEB",
        "meta_object_id": "1993-036AFV",
        "meta_epoch": "2025-12-14T03:40:01.084512",
        "meta_mean_motion": 14.45585468,
        "meta_eccentricity": 0.00977103,
        "meta_inclination": 73.8806,
        "meta_ra_of_asc_node": 308.5363,
        "meta_arg_of_pericenter": 283.3348,
        "meta_mean_anomaly": 75.6929,
        "meta_ephemeris_type": 0,
        "meta_classification_type": "U",
        "meta_norad_cat_id": 34997,
        "meta_element_set_no": 999,
        "meta_rev_at_epoch": 70767,
        "meta_bstar": 0.0019000145,
        "meta_mean_motion_dot": 7.095e-05,
        "meta_mean_motion_ddot": 0,
        "tle_line1": "1 34997U 93036AFV 25348.15279033  .00007095  00000+0  19000-2 0  9997",
        "tle_line2": "2 34997  73.8806 308.5363 0097710 283.3348  75.6929 14.45585468707674"
      },
      "geometry": {
        "type": "Point",
        "coordinates": [
          157.8423183021028,
          -63.5362971986949
        ]
      }
    },
    {
      "type": "Feature",
      "properties": {
        "norad_id": 34998,
        "name": "COSMOS 2251 DEB",
        "group": "cosmos-2251-debris",
        "lat": -10.385717048109218,
        "lon": -25.85816125637934,
        "alt_km": 735.720884096675,
        "timestamp": "2025-12-17T10:52:54.748061+00:00",
        "meta_object_name": "COSMOS 2251 DEB",
        "meta_object_id": "1993-036AFW",
        "meta_epoch": "2025-12-16T10:57:12.458016",
        "meta_mean_motion": 14.49297332,
        "meta_eccentricity": 0.00212597,
        "meta_inclination": 74.0093,
        "meta_ra_of_asc_node": 153.0016,
        "meta_arg_of_pericenter": 297.9373,
        "meta_mean_anomaly": 93.1906,
        "meta_ephemeris_type": 0,
        "meta_classification_type": "U",
        "meta_norad_cat_id": 34998,
        "meta_element_set_no": 999,
        "meta_rev_at_epoch": 87474,
        "meta_bstar": 0.00045816077,
        "meta_mean_motion_dot": 1.726e-05,
        "meta_mean_motion_ddot": 0,
        "tle_line1": "1 34998U 93036AFW 25350.45639419  .00001726  00000+0  45816-3 0  9992",
        "tle_line2": "2 34998  74.0093 153.0016 0021259 297.9373  93.1906 14.49297332874745"
      },
      "geometry": {
        "type": "Point",
        "coordinates": [
          -25.85816125637934,
          -10.385717048109218
        ]
      }
    },
    {
      "type": "Feature",
      "properties": {
        "norad_id": 35012,
        "name": "COSMOS 2251 DEB",
        "group": "cosmos-2251-debris",
        "lat": 70.98997240605705,
        "lon": -133.33417777485127,
        "alt_km": 778.3619333580509,
        "timestamp": "2025-12-17T10:52:54.748072+00:00",
        "meta_object_name": "COSMOS 2251 DEB",
        "meta_object_id": "1993-036AFZ",
        "meta_epoch": "2025-12-16T07:50:15.459648",
        "meta_mean_motion": 14.45553637,
        "meta_eccentricity": 0.00815743,
        "meta_inclination": 74.0207,
        "meta_ra_of_asc_node": 105.0422,
        "meta_arg_of_pericenter": 244.4407,
        "meta_mean_anomaly": 114.8302,
        "meta_ephemeris_type": 0,
        "meta_classification_type": "U",
        "meta_norad_cat_id": 35012,
        "meta_element_set_no": 999,
        "meta_rev_at_epoch": 87613,
        "meta_bstar": 0.00017108569,
        "meta_mean_motion_dot": 6e-06,
        "meta_mean_motion_ddot": 0,
        "tle_line1": "1 35012U 93036AFZ 25350.32656782  .00000600  00000+0  17109-3 0  9992",
        "tle_line2": "2 35012  74.0207 105.0422 0081574 244.4407 114.8302 14.45553637876134"
      },
      "geometry": {
        "type": "Point",
        "coordinates": [
          -133.33417777485127,
          70.98997240605705
        ]
      }
    }
  ]
}